[{"OBJECT_NAME":"TROLL","OBJECT_ID":"2025-009BB","EPOCH":"2026-03-09T05:24:19.835712","MEAN_MOTION":15.28164315,"ECCENTRICITY":0.00018165,"INCLINATION":97.3932,"RA_OF_ASC_NODE":150.7169,"ARG_OF_PERICENTER":59.185,"MEAN_ANOMALY":300.9568,"EPHEMERIS_TYPE":0,"CLASSIFICATION_TYPE":"U","NORAD_CAT_ID":62658,"ELEMENT_SET_NO":999,"REV_AT_EPOCH":11817,"BSTAR":0.00048220305,"MEAN_MOTION_DOT":0.00013174,"MEAN_MOTION_DDOT":0},{"OBJECT_NAME":"STARLINK-35440","OBJECT_ID":"2025-253AC","EPOCH":"2026-03-09T10:19:59.264256","MEAN_MOTION":15.2763173,"ECCENTRICITY":0.00023213,"INCLINATION":42.9994,"RA_OF_ASC_NODE":214.0675,"ARG_OF_PERICENTER":285.2507,"MEAN_ANOMALY":74.8088,"EPHEMERIS_TYPE":0,"CLASSIFICATION_TYPE":"U","NORAD_CAT_ID":66345,"ELEMENT_SET_NO":999,"REV_AT_EPOCH":2020,"BSTAR":0.0011925881,"MEAN_MOTION_DOT":0.00032754,"MEAN_MOTION_DDOT":0}]
